FLOCK 4H-20             
1 66723U 25276BK  25354.77191647  .00007040  00000+0  34679-3 0  9999
2 66723  97.4431  66.4290 0002658 178.4883 181.6360 15.18266003  2594
FLOCK 4H-21             
1 66724U 25276BL  25354.63964853  .00005929  00000+0  29212-3 0  9993
2 66724  97.4401  66.2869 0002346 174.2794 185.8468 15.18324343  2576
FLOCK 4H-22             
1 66725U 25276BM  25354.58559662  .00256591  00000+0  12170-1 0  9992
2 66725  97.4385  66.2018 0003075 150.0653 210.0757 15.18071649  3313
FLOCK 4H-23             
1 66726U 25276BN  25354.65489286  .00096418  00000+0  47691-2 0  9992
2 66726  97.4448  66.2842 0004908 262.8511  97.2165 15.17384434  3327
FLOCK 4H-24             
1 66727U 25276BP  25354.58746616  .00006596  00000+0  33421-3 0  9993
2 66727  97.4450  66.2241 0002748 274.8845  85.2074 15.17304106  3310
FLOCK 4H-25             
1 66728U 25276BQ  25354.57471189  .00006463  00000+0  31939-3 0  9998
2 66728  97.4408  66.2259 0001583 117.7402 242.3992 15.18185501  2594
FLOCK 4H-26             
1 66729U 25276BR  25354.45845391  .00007949  00000+0  40396-3 0  9993
2 66729  97.4406  66.0747 0003552 274.9943  85.0884 15.17128200  3299
FLOCK 4H-27             
1 66730U 25276BS  25354.77439259  .00005887  00000+0  29233-3 0  9998
2 66730  97.4382  66.4103 0001119 126.2787 233.8550 15.18055042  3349
FLOCK 4H-28             
1 66731U 25276BT  25354.72194661  .00004667  00000+0  23875-3 0  9990
2 66731  97.4392  66.3301 0003204 273.7383  86.3484 15.17112963  3338
FLOCK 4H-29             
1 66732U 25276BU  25354.58799532  .00051516  00000+0  25708-2 0  9994
2 66732  97.4512  66.2031 0000808 238.1520 121.9635 15.17318686  3319
FLOCK 4H-30             
1 66733U 25276BV  25354.12734969  .00413861  00000+0  19368-1 0  9997
2 66733  97.4445  65.7654 0005951 238.2181 121.8473 15.17773354  3246
FLOCK 4H-31             
1 66734U 25276BW  25354.58891161  .00007140  00000+0  36266-3 0  9993
2 66734  97.4397  66.1977 0002581 280.7322  79.3621 15.17186159  3312
