CCSDS_OMM_VERS = 2.0
CREATION_DATE  = 
ORIGINATOR     = 

OBJECT_NAME    = FLOCK 4H-20
OBJECT_ID      = 2025-276BK
CENTER_NAME    = EARTH
REF_FRAME      = TEME
TIME_SYSTEM    = UTC
MEAN_ELEMENT_THEORY = SGP/SGP4

EPOCH          = 2025-12-20T18:31:33.583008
MEAN_MOTION    = 15.18266003
ECCENTRICITY   = .0002658
INCLINATION    = 97.4431
RA_OF_ASC_NODE = 66.4290
ARG_OF_PERICENTER = 178.4883
MEAN_ANOMALY   = 181.6360

EPHEMERIS_TYPE = 0
CLASSIFICATION_TYPE = U
NORAD_CAT_ID   = 66723
ELEMENT_SET_NO = 999
REV_AT_EPOCH   = 259
BSTAR          = .34679E-3
MEAN_MOTION_DOT = .704E-4
MEAN_MOTION_DDOT = 0

CCSDS_OMM_VERS = 2.0
CREATION_DATE  = 
ORIGINATOR     = 

OBJECT_NAME    = FLOCK 4H-21
OBJECT_ID      = 2025-276BL
CENTER_NAME    = EARTH
REF_FRAME      = TEME
TIME_SYSTEM    = UTC
MEAN_ELEMENT_THEORY = SGP/SGP4

EPOCH          = 2025-12-20T15:21:05.632992
MEAN_MOTION    = 15.18324343
ECCENTRICITY   = .0002346
INCLINATION    = 97.4401
RA_OF_ASC_NODE = 66.2869
ARG_OF_PERICENTER = 174.2794
MEAN_ANOMALY   = 185.8468

EPHEMERIS_TYPE = 0
CLASSIFICATION_TYPE = U
NORAD_CAT_ID   = 66724
ELEMENT_SET_NO = 999
REV_AT_EPOCH   = 257
BSTAR          = .29212E-3
MEAN_MOTION_DOT = .5929E-4
MEAN_MOTION_DDOT = 0

CCSDS_OMM_VERS = 2.0
CREATION_DATE  = 
ORIGINATOR     = 

OBJECT_NAME    = FLOCK 4H-22
OBJECT_ID      = 2025-276BM
CENTER_NAME    = EARTH
REF_FRAME      = TEME
TIME_SYSTEM    = UTC
MEAN_ELEMENT_THEORY = SGP/SGP4

EPOCH          = 2025-12-20T14:03:15.547968
MEAN_MOTION    = 15.18071649
ECCENTRICITY   = .0003075
INCLINATION    = 97.4385
RA_OF_ASC_NODE = 66.2018
ARG_OF_PERICENTER = 150.0653
MEAN_ANOMALY   = 210.0757

EPHEMERIS_TYPE = 0
CLASSIFICATION_TYPE = U
NORAD_CAT_ID   = 66725
ELEMENT_SET_NO = 999
REV_AT_EPOCH   = 331
BSTAR          = .1217E-1
MEAN_MOTION_DOT = .256591E-2
MEAN_MOTION_DDOT = 0

CCSDS_OMM_VERS = 2.0
CREATION_DATE  = 
ORIGINATOR     = 

OBJECT_NAME    = FLOCK 4H-23
OBJECT_ID      = 2025-276BN
CENTER_NAME    = EARTH
REF_FRAME      = TEME
TIME_SYSTEM    = UTC
MEAN_ELEMENT_THEORY = SGP/SGP4

EPOCH          = 2025-12-20T15:43:02.743104
MEAN_MOTION    = 15.17384434
ECCENTRICITY   = .0004908
INCLINATION    = 97.4448
RA_OF_ASC_NODE = 66.2842
ARG_OF_PERICENTER = 262.8511
MEAN_ANOMALY   = 97.2165

EPHEMERIS_TYPE = 0
CLASSIFICATION_TYPE = U
NORAD_CAT_ID   = 66726
ELEMENT_SET_NO = 999
REV_AT_EPOCH   = 332
BSTAR          = .47691E-2
MEAN_MOTION_DOT = .96418E-3
MEAN_MOTION_DDOT = 0

CCSDS_OMM_VERS = 2.0
CREATION_DATE  = 
ORIGINATOR     = 

OBJECT_NAME    = FLOCK 4H-24
OBJECT_ID      = 2025-276BP
CENTER_NAME    = EARTH
REF_FRAME      = TEME
TIME_SYSTEM    = UTC
MEAN_ELEMENT_THEORY = SGP/SGP4

EPOCH          = 2025-12-20T14:05:57.076224
MEAN_MOTION    = 15.17304106
ECCENTRICITY   = .0002748
INCLINATION    = 97.4450
RA_OF_ASC_NODE = 66.2241
ARG_OF_PERICENTER = 274.8845
MEAN_ANOMALY   = 85.2074

EPHEMERIS_TYPE = 0
CLASSIFICATION_TYPE = U
NORAD_CAT_ID   = 66727
ELEMENT_SET_NO = 999
REV_AT_EPOCH   = 331
BSTAR          = .33421E-3
MEAN_MOTION_DOT = .6596E-4
MEAN_MOTION_DDOT = 0

CCSDS_OMM_VERS = 2.0
CREATION_DATE  = 
ORIGINATOR     = 

OBJECT_NAME    = FLOCK 4H-25
OBJECT_ID      = 2025-276BQ
CENTER_NAME    = EARTH
REF_FRAME      = TEME
TIME_SYSTEM    = UTC
MEAN_ELEMENT_THEORY = SGP/SGP4

EPOCH          = 2025-12-20T13:47:35.107296
MEAN_MOTION    = 15.18185501
ECCENTRICITY   = .0001583
INCLINATION    = 97.4408
RA_OF_ASC_NODE = 66.2259
ARG_OF_PERICENTER = 117.7402
MEAN_ANOMALY   = 242.3992

EPHEMERIS_TYPE = 0
CLASSIFICATION_TYPE = U
NORAD_CAT_ID   = 66728
ELEMENT_SET_NO = 999
REV_AT_EPOCH   = 259
BSTAR          = .31939E-3
MEAN_MOTION_DOT = .6463E-4
MEAN_MOTION_DDOT = 0

CCSDS_OMM_VERS = 2.0
CREATION_DATE  = 
ORIGINATOR     = 

OBJECT_NAME    = FLOCK 4H-26
OBJECT_ID      = 2025-276BR
CENTER_NAME    = EARTH
REF_FRAME      = TEME
TIME_SYSTEM    = UTC
MEAN_ELEMENT_THEORY = SGP/SGP4

EPOCH          = 2025-12-20T11:00:10.417824
MEAN_MOTION    = 15.17128200
ECCENTRICITY   = .0003552
INCLINATION    = 97.4406
RA_OF_ASC_NODE = 66.0747
ARG_OF_PERICENTER = 274.9943
MEAN_ANOMALY   = 85.0884

EPHEMERIS_TYPE = 0
CLASSIFICATION_TYPE = U
NORAD_CAT_ID   = 66729
ELEMENT_SET_NO = 999
REV_AT_EPOCH   = 329
BSTAR          = .40395568E-3
MEAN_MOTION_DOT = .7949E-4
MEAN_MOTION_DDOT = 0

CCSDS_OMM_VERS = 2.0
CREATION_DATE  = 
ORIGINATOR     = 

OBJECT_NAME    = FLOCK 4H-27
OBJECT_ID      = 2025-276BS
CENTER_NAME    = EARTH
REF_FRAME      = TEME
TIME_SYSTEM    = UTC
MEAN_ELEMENT_THEORY = SGP/SGP4

EPOCH          = 2025-12-20T18:35:07.519776
MEAN_MOTION    = 15.18055042
ECCENTRICITY   = .0001119
INCLINATION    = 97.4382
RA_OF_ASC_NODE = 66.4103
ARG_OF_PERICENTER = 126.2787
MEAN_ANOMALY   = 233.8550

EPHEMERIS_TYPE = 0
CLASSIFICATION_TYPE = U
NORAD_CAT_ID   = 66730
ELEMENT_SET_NO = 999
REV_AT_EPOCH   = 334
BSTAR          = .29233E-3
MEAN_MOTION_DOT = .5887E-4
MEAN_MOTION_DDOT = 0

CCSDS_OMM_VERS = 2.0
CREATION_DATE  = 
ORIGINATOR     = 

OBJECT_NAME    = FLOCK 4H-28
OBJECT_ID      = 2025-276BT
CENTER_NAME    = EARTH
REF_FRAME      = TEME
TIME_SYSTEM    = UTC
MEAN_ELEMENT_THEORY = SGP/SGP4

EPOCH          = 2025-12-20T17:19:36.187104
MEAN_MOTION    = 15.17112963
ECCENTRICITY   = .0003204
INCLINATION    = 97.4392
RA_OF_ASC_NODE = 66.3301
ARG_OF_PERICENTER = 273.7383
MEAN_ANOMALY   = 86.3484

EPHEMERIS_TYPE = 0
CLASSIFICATION_TYPE = U
NORAD_CAT_ID   = 66731
ELEMENT_SET_NO = 999
REV_AT_EPOCH   = 333
BSTAR          = .23875E-3
MEAN_MOTION_DOT = .4667E-4
MEAN_MOTION_DDOT = 0

CCSDS_OMM_VERS = 2.0
CREATION_DATE  = 
ORIGINATOR     = 

OBJECT_NAME    = FLOCK 4H-29
OBJECT_ID      = 2025-276BU
CENTER_NAME    = EARTH
REF_FRAME      = TEME
TIME_SYSTEM    = UTC
MEAN_ELEMENT_THEORY = SGP/SGP4

EPOCH          = 2025-12-20T14:06:42.795648
MEAN_MOTION    = 15.17318686
ECCENTRICITY   = .0000808
INCLINATION    = 97.4512
RA_OF_ASC_NODE = 66.2031
ARG_OF_PERICENTER = 238.1520
MEAN_ANOMALY   = 121.9635

EPHEMERIS_TYPE = 0
CLASSIFICATION_TYPE = U
NORAD_CAT_ID   = 66732
ELEMENT_SET_NO = 999
REV_AT_EPOCH   = 331
BSTAR          = .25708E-2
MEAN_MOTION_DOT = .51516E-3
MEAN_MOTION_DDOT = 0

CCSDS_OMM_VERS = 2.0
CREATION_DATE  = 
ORIGINATOR     = 

OBJECT_NAME    = FLOCK 4H-30
OBJECT_ID      = 2025-276BV
CENTER_NAME    = EARTH
REF_FRAME      = TEME
TIME_SYSTEM    = UTC
MEAN_ELEMENT_THEORY = SGP/SGP4

EPOCH          = 2025-12-20T03:03:23.013216
MEAN_MOTION    = 15.17773354
ECCENTRICITY   = .00059512
INCLINATION    = 97.4445
RA_OF_ASC_NODE = 65.7654
ARG_OF_PERICENTER = 238.2181
MEAN_ANOMALY   = 121.8473

EPHEMERIS_TYPE = 0
CLASSIFICATION_TYPE = U
NORAD_CAT_ID   = 66733
ELEMENT_SET_NO = 999
REV_AT_EPOCH   = 324
BSTAR          = .19368183E-1
MEAN_MOTION_DOT = .413861E-2
MEAN_MOTION_DDOT = 0

CCSDS_OMM_VERS = 2.0
CREATION_DATE  = 
ORIGINATOR     = 

OBJECT_NAME    = FLOCK 4H-31
OBJECT_ID      = 2025-276BW
CENTER_NAME    = EARTH
REF_FRAME      = TEME
TIME_SYSTEM    = UTC
MEAN_ELEMENT_THEORY = SGP/SGP4

EPOCH          = 2025-12-20T14:08:01.963104
MEAN_MOTION    = 15.17186159
ECCENTRICITY   = .0002581
INCLINATION    = 97.4397
RA_OF_ASC_NODE = 66.1977
ARG_OF_PERICENTER = 280.7322
MEAN_ANOMALY   = 79.3621

EPHEMERIS_TYPE = 0
CLASSIFICATION_TYPE = U
NORAD_CAT_ID   = 66734
ELEMENT_SET_NO = 999
REV_AT_EPOCH   = 331
BSTAR          = .36266E-3
MEAN_MOTION_DOT = .714E-4
MEAN_MOTION_DDOT = 0

